CCSDS_OMM_VERS = 2.0
CREATION_DATE  = 
ORIGINATOR     = 

OBJECT_NAME    = SL-16 R/B
OBJECT_ID      = 1993-016B
CENTER_NAME    = EARTH
REF_FRAME      = TEME
TIME_SYSTEM    = UTC
MEAN_ELEMENT_THEORY = SGP/SGP4

EPOCH          = 2025-12-30T03:54:09.952416
MEAN_MOTION    = 14.15295243
ECCENTRICITY   = .0008056
INCLINATION    = 71.0086
RA_OF_ASC_NODE = 1.2093
ARG_OF_PERICENTER = 62.5517
MEAN_ANOMALY   = 297.6424

EPHEMERIS_TYPE = 0
CLASSIFICATION_TYPE = U
NORAD_CAT_ID   = 22566
ELEMENT_SET_NO = 999
REV_AT_EPOCH   = 69233
BSTAR          = .77275E-4
MEAN_MOTION_DOT = .103E-5
MEAN_MOTION_DDOT = 0

CCSDS_OMM_VERS = 2.0
CREATION_DATE  = 
ORIGINATOR     = 

OBJECT_NAME    = COSMOS 2242
OBJECT_ID      = 1993-024A
CENTER_NAME    = EARTH
REF_FRAME      = TEME
TIME_SYSTEM    = UTC
MEAN_ELEMENT_THEORY = SGP/SGP4

EPOCH          = 2025-12-30T03:48:08.356320
MEAN_MOTION    = 14.96187901
ECCENTRICITY   = .0016397
INCLINATION    = 82.5193
RA_OF_ASC_NODE = 333.1947
ARG_OF_PERICENTER = 172.8942
MEAN_ANOMALY   = 187.2516

EPHEMERIS_TYPE = 0
CLASSIFICATION_TYPE = U
NORAD_CAT_ID   = 22626
ELEMENT_SET_NO = 999
REV_AT_EPOCH   = 76999
BSTAR          = .29977E-3
MEAN_MOTION_DOT = .3411E-4
MEAN_MOTION_DDOT = 0

CCSDS_OMM_VERS = 2.0
CREATION_DATE  = 
ORIGINATOR     = 

OBJECT_NAME    = SL-16 R/B
OBJECT_ID      = 1993-059B
CENTER_NAME    = EARTH
REF_FRAME      = TEME
TIME_SYSTEM    = UTC
MEAN_ELEMENT_THEORY = SGP/SGP4

EPOCH          = 2025-12-30T03:58:50.869056
MEAN_MOTION    = 14.17218764
ECCENTRICITY   = .0018877
INCLINATION    = 70.9896
RA_OF_ASC_NODE = 157.7390
ARG_OF_PERICENTER = 311.1492
MEAN_ANOMALY   = 48.8002

EPHEMERIS_TYPE = 0
CLASSIFICATION_TYPE = U
NORAD_CAT_ID   = 22803
ELEMENT_SET_NO = 999
REV_AT_EPOCH   = 66968
BSTAR          = .87672E-4
MEAN_MOTION_DOT = .129E-5
MEAN_MOTION_DDOT = 0

CCSDS_OMM_VERS = 2.0
CREATION_DATE  = 
ORIGINATOR     = 

OBJECT_NAME    = ARIANE 40 R/B
OBJECT_ID      = 1993-061H
CENTER_NAME    = EARTH
REF_FRAME      = TEME
TIME_SYSTEM    = UTC
MEAN_ELEMENT_THEORY = SGP/SGP4

EPOCH          = 2025-12-30T03:30:48.637728
MEAN_MOTION    = 14.32814197
ECCENTRICITY   = .0011667
INCLINATION    = 98.5052
RA_OF_ASC_NODE = 69.3578
ARG_OF_PERICENTER = 127.3159
MEAN_ANOMALY   = 232.9090

EPHEMERIS_TYPE = 0
CLASSIFICATION_TYPE = U
NORAD_CAT_ID   = 22830
ELEMENT_SET_NO = 999
REV_AT_EPOCH   = 68414
BSTAR          = .17612E-3
MEAN_MOTION_DOT = .437E-5
MEAN_MOTION_DDOT = 0

CCSDS_OMM_VERS = 2.0
CREATION_DATE  = 
ORIGINATOR     = 

OBJECT_NAME    = COSMOS 2278
OBJECT_ID      = 1994-023A
CENTER_NAME    = EARTH
REF_FRAME      = TEME
TIME_SYSTEM    = UTC
MEAN_ELEMENT_THEORY = SGP/SGP4

EPOCH          = 2025-12-30T03:30:54.537984
MEAN_MOTION    = 14.14351115
ECCENTRICITY   = .0007616
INCLINATION    = 71.0538
RA_OF_ASC_NODE = 320.5919
ARG_OF_PERICENTER = 148.0411
MEAN_ANOMALY   = 212.1175

EPHEMERIS_TYPE = 0
CLASSIFICATION_TYPE = U
NORAD_CAT_ID   = 23087
ELEMENT_SET_NO = 999
REV_AT_EPOCH   = 63497
BSTAR          = .19085E-3
MEAN_MOTION_DOT = .318E-5
MEAN_MOTION_DDOT = 0

CCSDS_OMM_VERS = 2.0
CREATION_DATE  = 
ORIGINATOR     = 

OBJECT_NAME    = SL-16 R/B
OBJECT_ID      = 1994-023B
CENTER_NAME    = EARTH
REF_FRAME      = TEME
TIME_SYSTEM    = UTC
MEAN_ELEMENT_THEORY = SGP/SGP4

EPOCH          = 2025-12-30T00:17:56.469696
MEAN_MOTION    = 14.14998566
ECCENTRICITY   = .0002329
INCLINATION    = 70.9973
RA_OF_ASC_NODE = 217.2133
ARG_OF_PERICENTER = 359.9721
MEAN_ANOMALY   = 0.1401

EPHEMERIS_TYPE = 0
CLASSIFICATION_TYPE = U
NORAD_CAT_ID   = 23088
ELEMENT_SET_NO = 999
REV_AT_EPOCH   = 63623
BSTAR          = .71649E-5
MEAN_MOTION_DOT = -.34E-6
MEAN_MOTION_DDOT = 0

CCSDS_OMM_VERS = 2.0
CREATION_DATE  = 
ORIGINATOR     = 

OBJECT_NAME    = SL-16 R/B
OBJECT_ID      = 1994-074B
CENTER_NAME    = EARTH
REF_FRAME      = TEME
TIME_SYSTEM    = UTC
MEAN_ELEMENT_THEORY = SGP/SGP4

EPOCH          = 2025-12-30T01:22:16.462272
MEAN_MOTION    = 14.79311376
ECCENTRICITY   = .0008057
INCLINATION    = 97.7187
RA_OF_ASC_NODE = 32.6719
ARG_OF_PERICENTER = 88.7879
MEAN_ANOMALY   = 324.7225

EPHEMERIS_TYPE = 0
CLASSIFICATION_TYPE = U
NORAD_CAT_ID   = 23343
ELEMENT_SET_NO = 999
REV_AT_EPOCH   = 67695
BSTAR          = .11443E-3
MEAN_MOTION_DOT = .803E-5
MEAN_MOTION_DDOT = 0

CCSDS_OMM_VERS = 2.0
CREATION_DATE  = 
ORIGINATOR     = 

OBJECT_NAME    = SL-16 R/B
OBJECT_ID      = 1994-077B
CENTER_NAME    = EARTH
REF_FRAME      = TEME
TIME_SYSTEM    = UTC
MEAN_ELEMENT_THEORY = SGP/SGP4

EPOCH          = 2025-12-30T02:12:21.356640
MEAN_MOTION    = 14.15550761
ECCENTRICITY   = .0005026
INCLINATION    = 70.9826
RA_OF_ASC_NODE = 138.9097
ARG_OF_PERICENTER = 270.4537
MEAN_ANOMALY   = 89.6010

EPHEMERIS_TYPE = 0
CLASSIFICATION_TYPE = U
NORAD_CAT_ID   = 23405
ELEMENT_SET_NO = 999
REV_AT_EPOCH   = 60638
BSTAR          = -.91699E-4
MEAN_MOTION_DOT = -.227E-5
MEAN_MOTION_DDOT = 0

CCSDS_OMM_VERS = 2.0
CREATION_DATE  = 
ORIGINATOR     = 

OBJECT_NAME    = ARIANE 40+ R/B
OBJECT_ID      = 1995-021B
CENTER_NAME    = EARTH
REF_FRAME      = TEME
TIME_SYSTEM    = UTC
MEAN_ELEMENT_THEORY = SGP/SGP4

EPOCH          = 2025-12-30T04:18:27.491040
MEAN_MOTION    = 14.39710109
ECCENTRICITY   = .0006551
INCLINATION    = 98.4629
RA_OF_ASC_NODE = 71.5562
ARG_OF_PERICENTER = 359.9634
MEAN_ANOMALY   = 54.2248

EPHEMERIS_TYPE = 0
CLASSIFICATION_TYPE = U
NORAD_CAT_ID   = 23561
ELEMENT_SET_NO = 999
REV_AT_EPOCH   = 60924
BSTAR          = .17617E-3
MEAN_MOTION_DOT = .508E-5
MEAN_MOTION_DDOT = 0

CCSDS_OMM_VERS = 2.0
CREATION_DATE  = 
ORIGINATOR     = 

OBJECT_NAME    = SL-16 R/B
OBJECT_ID      = 1995-058B
CENTER_NAME    = EARTH
REF_FRAME      = TEME
TIME_SYSTEM    = UTC
MEAN_ELEMENT_THEORY = SGP/SGP4

EPOCH          = 2025-12-30T03:59:15.296064
MEAN_MOTION    = 14.15481944
ECCENTRICITY   = .0014404
INCLINATION    = 71.0219
RA_OF_ASC_NODE = 326.2169
ARG_OF_PERICENTER = 231.8438
MEAN_ANOMALY   = 128.1387

EPHEMERIS_TYPE = 0
CLASSIFICATION_TYPE = U
NORAD_CAT_ID   = 23705
ELEMENT_SET_NO = 999
REV_AT_EPOCH   = 55801
BSTAR          = .89712E-4
MEAN_MOTION_DOT = .128E-5
MEAN_MOTION_DDOT = 0

CCSDS_OMM_VERS = 2.0
CREATION_DATE  = 
ORIGINATOR     = 

OBJECT_NAME    = SL-16 R/B
OBJECT_ID      = 1996-051B
CENTER_NAME    = EARTH
REF_FRAME      = TEME
TIME_SYSTEM    = UTC
MEAN_ELEMENT_THEORY = SGP/SGP4

EPOCH          = 2025-12-30T04:39:34.475328
MEAN_MOTION    = 14.12398414
ECCENTRICITY   = .0019432
INCLINATION    = 70.7598
RA_OF_ASC_NODE = 322.3375
ARG_OF_PERICENTER = 239.9237
MEAN_ANOMALY   = 119.9956

EPHEMERIS_TYPE = 0
CLASSIFICATION_TYPE = U
NORAD_CAT_ID   = 24298
ELEMENT_SET_NO = 999
REV_AT_EPOCH   = 51183
BSTAR          = .45141E-4
MEAN_MOTION_DOT = .34E-6
MEAN_MOTION_DDOT = 0

CCSDS_OMM_VERS = 2.0
CREATION_DATE  = 
ORIGINATOR     = 

OBJECT_NAME    = ORBVIEW 2 (SEASTAR)
OBJECT_ID      = 1997-037A
CENTER_NAME    = EARTH
REF_FRAME      = TEME
TIME_SYSTEM    = UTC
MEAN_ELEMENT_THEORY = SGP/SGP4

EPOCH          = 2025-12-30T01:30:31.480704
MEAN_MOTION    = 14.35431171
ECCENTRICITY   = .0001237
INCLINATION    = 98.8467
RA_OF_ASC_NODE = 161.5746
ARG_OF_PERICENTER = 261.1436
MEAN_ANOMALY   = 98.9608

EPHEMERIS_TYPE = 0
CLASSIFICATION_TYPE = U
NORAD_CAT_ID   = 24883
ELEMENT_SET_NO = 999
REV_AT_EPOCH   = 49848
BSTAR          = .20387E-3
MEAN_MOTION_DOT = .539E-5
MEAN_MOTION_DDOT = 0

