SL-16 R/B               
1 22566U 93016B   25364.16261519  .00000103  00000+0  77275-4 0  9996
2 22566  71.0086   1.2093 0008056  62.5517 297.6424 14.15295243692338
COSMOS 2242             
1 22626U 93024A   25364.15843005  .00003411  00000+0  29977-3 0  9997
2 22626  82.5193 333.1947 0016397 172.8942 187.2516 14.96187901769993
SL-16 R/B               
1 22803U 93059B   25364.16586654  .00000129  00000+0  87672-4 0  9997
2 22803  70.9896 157.7390 0018877 311.1492  48.8002 14.17218764669688
ARIANE 40 R/B           
1 22830U 93061H   25364.14639627  .00000437  00000+0  17612-3 0  9995
2 22830  98.5052  69.3578 0011667 127.3159 232.9090 14.32814197684141
COSMOS 2278             
1 23087U 94023A   25364.14646456  .00000318  00000+0  19085-3 0  9991
2 23087  71.0538 320.5919 0007616 148.0411 212.1175 14.14351115634978
SL-16 R/B               
1 23088U 94023B   25364.01245914 -.00000034  00000+0  71649-5 0  9994
2 23088  70.9973 217.2133 0002329 359.9721   0.1401 14.14998566636238
SL-16 R/B               
1 23343U 94074B   25364.05713498  .00000803  00000+0  11443-3 0  9992
2 23343  97.7187  32.6719 0008057  88.7879 324.7225 14.79311376676951
SL-16 R/B               
1 23405U 94077B   25364.09191385 -.00000227  00000+0 -91699-4 0  9997
2 23405  70.9826 138.9097 0005026 270.4537  89.6010 14.15550761606388
ARIANE 40+ R/B          
1 23561U 95021B   25364.17948485  .00000508  00000+0  17617-3 0  9997
2 23561  98.4629  71.5562 0006551 359.9634  54.2248 14.39710109609240
SL-16 R/B               
1 23705U 95058B   25364.16614926  .00000128  00000+0  89712-4 0  9990
2 23705  71.0219 326.2169 0014404 231.8438 128.1387 14.15481944558010
SL-16 R/B               
1 24298U 96051B   25364.19414902  .00000034  00000+0  45141-4 0  9991
2 24298  70.7598 322.3375 0019432 239.9237 119.9956 14.12398414511837
ORBVIEW 2 (SEASTAR)     
1 24883U 97037A   25364.06286436  .00000539  00000+0  20387-3 0  9995
2 24883  98.8467 161.5746 0001237 261.1436  98.9608 14.35431171498488
